STARLINK-37018          
1 68103U 26044C   26071.66668981 -.01480412  73487-3 -19653-2 0  9990
2 68103  97.2834  31.7243 0000923 104.8126 259.9446 16.06830037  1834
STARLINK-37041          
1 68104U 26044D   26071.66668981 -.01477147  73423-3 -19300-2 0  9991
2 68104  97.2835  31.7250 0000945 106.9941 259.6052 16.07086695  1830
STARLINK-37021          
1 68105U 26044E   26071.66668981 -.01466419  72518-3 -19047-2 0  9994
2 68105  97.2833  31.7254 0000951 110.2622 257.1364 16.07180297  1836
STARLINK-37024          
1 68106U 26044F   26071.66668981 -.01468843  72855-3 -18934-2 0  9996
2 68106  97.2833  31.7255 0000916 105.6699 262.6119 16.07303443  1830
STARLINK-37005          
1 68107U 26044G   26071.66668981 -.01471438  72770-3 -19386-2 0  9999
2 68107  97.2833  31.7242 0001351 123.8255 241.8500 16.06951254  1832
STARLINK-37017          
1 68108U 26044H   26071.66668981 -.01470575  73152-3 -18784-2 0  9997
2 68108  97.2833  31.7261 0000911  99.9111 269.3629 16.07449998  1834
STARLINK-36833          
1 68109U 26044J   26071.66668981 -.01454692  71910-3 -18293-2 0  9995
2 68109  97.2829  31.7269 0001531 120.6063 250.5008 16.07696257  1874
STARLINK-36830          
1 68110U 26044K   26071.66668981 -.01459361  72244-3 -18476-2 0  9999
2 68110  97.2829  31.7265 0000934 107.9350 262.3495 16.07590529  1871
STARLINK-36791          
1 68111U 26044L   26071.66668981 -.01461733  72692-3 -18222-2 0  9992
2 68111  97.2831  31.7274 0001043 107.3762 264.6848 16.07837496  1838
STARLINK-36893          
1 68112U 26044M   26071.66668981 -.01440093  70791-3 -17833-2 0  9994
2 68112  97.2829  31.7276 0001590 112.5000 260.4326 16.07939261  1870
STARLINK-36937          
1 68113U 26044N   26071.66668981 -.01457059  72597-3 -17754-2 0  9993
2 68113  97.2830  31.7283 0001004 103.2596 271.4572 16.08200179  1839
STARLINK-36229          
1 68114U 26044P   26071.66668981 -.01460430  72804-3 -17922-2 0  9999
2 68114  97.2825  31.7277 0000997 101.5785 272.2833 16.08087169  1873
